[
    {
        "Altitude(m)": 610405.2904353729,
        "Argument of Periapsis(deg)": 0.0,
        "Eccentricity": 0.0,
        "Inclination(deg)": 60.0,
        "Latitude(deg)": 52.111181649383084,
        "Longitude(deg)": -27.52268481825824,
        "Mean Anomaly(deg)": -245.4545,
        "RAAN(deg)": 300.0,
        "Satellite Name": "Test1 1327",
        "Satellite Number": 1327,
        "Semi-Major Axis(m)": 6980739.136638005,
        "Time(s)": 0
    },
    {
        "Altitude(m)": 610321.8637067432,
        "Argument of Periapsis(deg)": 0.00010418945913296404,
        "Eccentricity": 0.0,
        "Inclination(deg)": 60.0,
        "Latitude(deg)": 51.74589770487122,
        "Longitude(deg)": -26.753791165132423,
        "Mean Anomaly(deg)": -244.83439385453815,
        "RAAN(deg)": 299.99957995086027,
        "Satellite Name": "Test1 1327",
        "Satellite Number": 1327,
        "Semi-Major Axis(m)": 6980739.136638005,
        "Time(s)": 10
    }
]